CELESTIS-02 & TAURUS R/B
1 25160U 98007D   24158.57078433  .00000165  00000+0  13060-3 0  9999
2 25160 107.9987 277.7227 0063294 317.4331  52.9181 14.21995746365218
